ONEWEB-0216             
1 48801U 21045AL  24099.90364248 -.00000052  00000+0 -17298-3 0  9991
2 48801  87.9009  58.2703 0001801  73.3003 286.8325 13.15549220139219
ONEWEB-0239             
1 48802U 21045AM  24099.90838240 -.00000170  00000+0 -48615-3 0  9998
2 48802  87.9020  58.2388 0001386 113.6727 246.4549 13.15546647139255
ONEWEB-0249             
1 48967U 21060A   24099.56408431  .00000053  00000+0  10527-3 0  9993
2 48967  87.9147  27.9209 0001914  78.6649 281.4697 13.16592208134390
ONEWEB-0250             
1 48968U 21060B   24100.02481043  .00000090  00000+0  20225-3 0  9995
2 48968  87.9147  27.8132 0001647  87.2878 272.8442 13.16596881134436
ONEWEB-0252             
1 48970U 21060D   24099.51975452 -.00000037  00000+0 -13111-3 0  9990
2 48970  87.9147  27.9228 0001809  73.7329 286.4001 13.16595353134432
ONEWEB-0253             
1 48971U 21060E   24100.04063622 -.00000005  00000+0 -47358-4 0  9995
2 48971  87.9146  27.8331 0001561  78.6651 281.4655 13.16592108134438
ONEWEB-0254             
1 48972U 21060F   24100.05014013 -.00000407  00000+0 -10993-2 0  9996
2 48972  87.9148  27.8074 0001522  78.8106 281.3196 13.16594015134437
ONEWEB-0255             
1 48973U 21060G   24099.78415460  .00000121  00000+0  28262-3 0  9995
2 48973  87.9147  27.8954 0001842  81.0408 279.0931 13.16597000134472
